[{"OBJECT_NAME":"SJ-11-08","OBJECT_ID":"2014-066A","EPOCH":"2026-03-09T22:53:00.595104","MEAN_MOTION":14.66034371,"ECCENTRICITY":0.0012045,"INCLINATION":98.3343,"RA_OF_ASC_NODE":212.2023,"ARG_OF_PERICENTER":177.4868,"MEAN_ANOMALY":182.6397,"EPHEMERIS_TYPE":0,"CLASSIFICATION_TYPE":"U","NORAD_CAT_ID":40286,"ELEMENT_SET_NO":999,"REV_AT_EPOCH":60667,"BSTAR":0.00021581711,"MEAN_MOTION_DOT":1.134e-5,"MEAN_MOTION_DDOT":0},{"OBJECT_NAME":"FENGYUN 1C DEB","OBJECT_ID":"1999-025ATZ","EPOCH":"2026-03-09T21:32:09.995424","MEAN_MOTION":14.65481631,"ECCENTRICITY":0.0017063,"INCLINATION":98.8846,"RA_OF_ASC_NODE":152.0058,"ARG_OF_PERICENTER":7.1955,"MEAN_ANOMALY":53.0184,"EPHEMERIS_TYPE":0,"CLASSIFICATION_TYPE":"U","NORAD_CAT_ID":30763,"ELEMENT_SET_NO":999,"REV_AT_EPOCH":98419,"BSTAR":0.0040884535,"MEAN_MOTION_DOT":0.00022205,"MEAN_MOTION_DDOT":0}]
